[
    {
        "Altitude(m)": 559886.508102466,
        "Argument of Periapsis(deg)": 0.033114955553567506,
        "Eccentricity": 0.0,
        "Inclination(deg)": 53.0,
        "Latitude(deg)": 53.089185737268416,
        "Longitude(deg)": -155.14934290485175,
        "Mean Anomaly(deg)": 92.27626433788797,
        "RAAN(deg)": 214.9507168426401,
        "Satellite Name": "Starlink Shell 1 948",
        "Satellite Number": 948,
        "Semi-Major Axis(m)": 6931778.249405717,
        "Time(s)": 950
    },
    {
        "Altitude(m)": 559877.9446998101,
        "Argument of Periapsis(deg)": 0.03346353403307874,
        "Eccentricity": 0.0,
        "Inclination(deg)": 53.0,
        "Latitude(deg)": 53.051136039891254,
        "Longitude(deg)": -154.15216880304783,
        "Mean Anomaly(deg)": 92.90309554144467,
        "RAAN(deg)": 214.9501980725626,
        "Satellite Name": "Starlink Shell 1 948",
        "Satellite Number": 948,
        "Semi-Major Axis(m)": 6931778.249405717,
        "Time(s)": 960
    },
    {
        "Altitude(m)": 559867.3258123958,
        "Argument of Periapsis(deg)": 0.03381211251258998,
        "Eccentricity": 0.0,
        "Inclination(deg)": 53.0,
        "Latitude(deg)": 53.00404388092518,
        "Longitude(deg)": -153.15703774512673,
        "Mean Anomaly(deg)": 93.52992674500138,
        "RAAN(deg)": 214.94967930248512,
        "Satellite Name": "Starlink Shell 1 948",
        "Satellite Number": 948,
        "Semi-Major Axis(m)": 6931778.249405717,
        "Time(s)": 970
    },
    {
        "Altitude(m)": 559854.657848394,
        "Argument of Periapsis(deg)": 0.034160690992101214,
        "Eccentricity": 0.0,
        "Inclination(deg)": 53.0,
        "Latitude(deg)": 52.94794406885017,
        "Longitude(deg)": -152.16437340062092,
        "Mean Anomaly(deg)": 94.15675794855808,
        "RAAN(deg)": 214.94916053240766,
        "Satellite Name": "Starlink Shell 1 948",
        "Satellite Number": 948,
        "Semi-Major Axis(m)": 6931778.249405717,
        "Time(s)": 980
    },
    {
        "Altitude(m)": 559839.9484471077,
        "Argument of Periapsis(deg)": 0.034509269471612446,
        "Eccentricity": 0.0,
        "Inclination(deg)": 53.0,
        "Latitude(deg)": 52.88287784117112,
        "Longitude(deg)": -151.17459167248623,
        "Mean Anomaly(deg)": 94.78358915211481,
        "RAAN(deg)": 214.94864176233023,
        "Satellite Name": "Starlink Shell 1 948",
        "Satellite Number": 948,
        "Semi-Major Axis(m)": 6931778.249405717,
        "Time(s)": 990
    }
]